NORAD_CAT_ID,OBJECT_NAME,OBJECT_TYPE,EPOCH,MEAN_MOTION,ECCENTRICITY,INCLINATION,RA_OF_ASC_NODE,ARG_OF_PERICENTER,MEAN_ANOMALY,BSTAR,MEAN_MOTION_DOT,MEAN_MOTION_DDOT,TLE_LINE0,TLE_LINE1,TLE_LINE2,SEMIMAJOR_AXIS,PERIOD,APOGEE,PERIGEE,DECAYED
56497.0,STARLINK-5527,PAYLOAD,2023-08-06 10:48:47,15.69892605,0.0003252,69.9982,358.636,263.2693,96.8132,-7.2501e-06,-1.083e-05,0.0,0 STARLINK-5527,1 56497U 23064BB  23218.45055099 -.00001083  00000-0 -72501-5 0  9993,2 56497  69.9982 358.6360 0003252 263.2693  96.8132 15.69892605 14140,6737.341,91.726,361.397,357.015,0.0
56497.0,STARLINK-5527,PAYLOAD,2023-08-06 16:55:47,15.69909882,0.0003601,69.9985,357.9182,267.7647,92.3136,1.0248e-05,1.019e-05,0.0,0 STARLINK-5527,1 56497U 23064BB  23218.70540718  .00001019  00000-0  10248-4 0  9994,2 56497  69.9985 357.9182 0003601 267.7647  92.3136 15.69909882 14188,6737.292,91.725,361.583,356.731,0.0
56497.0,STARLINK-5527,PAYLOAD,2023-08-06 19:59:16,15.69922598,0.0003551,69.9989,357.5621,252.9507,107.13,1.3463e-05,1.406e-05,0.0,0 STARLINK-5527,1 56497U 23064BB  23218.83283101  .00001406  00000-0  13463-4 0  9990,2 56497  69.9989 357.5621 0003551 252.9507 107.1300 15.69922598 14201,6737.255,91.724,361.513,356.728,0.0
56497.0,STARLINK-5527,PAYLOAD,2023-08-07 09:45:01,15.69934585,0.0003899,69.9981,355.946,265.8639,94.2111,2.6246e-05,2.946e-05,0.0,0 STARLINK-5527,1 56497U 23064BB  23219.40626597  .00002946  00000-0  26246-4 0  9997,2 56497  69.9981 355.9460 0003899 265.8639  94.2111 15.69934585 14294,6737.221,91.724,361.713,356.459,0.0
56497.0,STARLINK-5527,PAYLOAD,2023-08-07 18:55:32,15.69924168,0.0003673,69.9972,354.8719,268.7378,91.3397,7.9554e-06,7.44e-06,0.0,0 STARLINK-5527,1 56497U 23064BB  23219.78857562  .00000744  00000-0  79554-5 0  9991,2 56497  69.9972 354.8719 0003673 268.7378  91.3397 15.69924168 14358,6737.251,91.724,361.591,356.641,0.0
56497.0,STARLINK-5527,PAYLOAD,2023-08-08 02:34:19,15.69912343,0.0003265,69.9982,353.9756,270.8762,89.2059,8.4968e-06,8.09e-06,0.0,0 STARLINK-5527,1 56497U 23064BB  23220.10716863  .00000809  00000-0  84968-5 0  9994,2 56497  69.9982 353.9756 0003265 270.8762  89.2059 15.69912343 14407,6737.285,91.725,361.35,356.95,0.0
56497.0,STARLINK-5527,PAYLOAD,2023-08-08 13:16:34,15.69924059,0.0004173,69.9993,352.7247,267.0639,93.0079,2.1857e-05,2.416e-05,0.0,0 STARLINK-5527,1 56497U 23064BB  23220.55317616  .00002416  00000-0  21857-4 0  9999,2 56497  69.9993 352.7247 0004173 267.0639  93.0079 15.69924059 14470,6737.251,91.724,361.928,356.305,0.0
56497.0,STARLINK-5527,PAYLOAD,2023-08-08 19:23:35,15.69919818,0.0003324,69.9991,352.0073,268.0867,91.9948,1.5305e-05,1.628e-05,0.0,0 STARLINK-5527,1 56497U 23064BB  23220.80805006  .00001628  00000-0  15305-4 0  9997,2 56497  69.9991 352.0073 0003324 268.0867  91.9948 15.69919818 14513,6737.263,91.724,361.368,356.889,0.0
56497.0,STARLINK-5527,PAYLOAD,2023-08-09 18:19:52,15.69915208,0.0003579,69.9978,349.3186,273.7029,86.3757,-1.1836e-05,-1.635e-05,0.0,0 STARLINK-5527,1 56497U 23064BB  23221.76380437 -.00001635  00000-0 -11836-4 0  9994,2 56497  69.9978 349.3186 0003579 273.7029  86.3757 15.69915208 14668,6737.277,91.725,361.553,356.73,0.0
56497.0,STARLINK-5527,PAYLOAD,2023-08-10 09:37:23,15.6992335,0.000353,69.9977,347.5256,275.8782,84.2011,8.8621e-07,-1.06e-06,0.0,0 STARLINK-5527,1 56497U 23064BB  23222.40096624 -.00000106  00000-0  88621-6 0  9997,2 56497  69.9977 347.5256 0003530 275.8782  84.2011 15.69923350 14769,6737.253,91.724,361.497,356.74,0.0
56497.0,STARLINK-5527,PAYLOAD,2023-08-10 18:47:53,15.69932063,0.0003335,69.998,346.4506,270.1614,89.9199,8.8855e-06,8.56e-06,0.0,0 STARLINK-5527,1 56497U 23064BB  23222.78325860  .00000856  00000-0  88855-5 0  9994,2 56497  69.9980 346.4506 0003335 270.1614  89.9199 15.69932063 14821,6737.228,91.724,361.34,356.847,0.0
56497.0,STARLINK-5527,PAYLOAD,2023-08-11 10:05:25,15.69919967,0.0003503,69.9979,344.6598,272.5801,87.4993,-2.9974e-06,-5.73e-06,0.0,0 STARLINK-5527,1 56497U 23064BB  23223.42043624 -.00000573  00000-0 -29974-5 0  9996,2 56497  69.9979 344.6598 0003503 272.5801  87.4993 15.69919967 14925,6737.263,91.724,361.488,356.768,0.0
56497.0,STARLINK-5527,PAYLOAD,2023-08-11 17:44:10,15.69927991,0.0003543,69.9983,343.766,274.4882,85.5909,3.3336e-06,1.88e-06,0.0,0 STARLINK-5527,1 56497U 23064BB  23223.73901376  .00000188  00000-0  33336-5 0  9994,2 56497  69.9983 343.7660 0003543 274.4882  85.5909 15.69927991 14971,6737.24,91.724,361.492,356.718,0.0
56497.0,STARLINK-5527,PAYLOAD,2023-08-12 01:22:56,15.69915336,0.0003357,69.9983,342.8706,279.231,80.8505,2.0309e-05,2.229e-05,0.0,0 STARLINK-5527,1 56497U 23064BB  23224.05760322  .00002229  00000-0  20309-4 0  9997,2 56497  69.9983 342.8706 0003357 279.2310  80.8505 15.69915336 15021,6737.276,91.725,361.403,356.88,0.0
56497.0,STARLINK-5527,PAYLOAD,2023-08-12 10:33:27,15.69928646,0.0003729,69.998,341.796,277.4998,82.5774,-4.9432e-07,-2.72e-06,0.0,0 STARLINK-5527,1 56497U 23064BB  23224.43989822 -.00000272  00000-0 -49432-6 0  9995,2 56497  69.9980 341.7960 0003729 277.4998  82.5774 15.69928646 15084,6737.238,91.724,361.615,356.591,0.0
56497.0,STARLINK-5527,PAYLOAD,2023-08-13 17:08:29,15.69929045,0.0003243,69.9977,338.2116,271.9932,88.0893,1.0494e-05,1.049e-05,0.0,0 STARLINK-5527,1 56497U 23064BB  23225.71423153  .00001049  00000-0  10494-4 0  9992,2 56497  69.9977 338.2116 0003243 271.9932  88.0893 15.69929045 15281,6737.237,91.724,361.287,356.917,0.0
56497.0,STARLINK-5527,PAYLOAD,2023-08-14 00:47:15,15.69917088,0.0003797,69.9975,337.3161,266.9332,93.1429,-4.9092e-06,-8.03e-06,0.0,0 STARLINK-5527,1 56497U 23064BB  23226.03282165 -.00000803  00000-0 -49092-5 0  9990,2 56497  69.9975 337.3161 0003797 266.9332  93.1429 15.69917088 15333,6737.271,91.725,361.694,356.578,0.0
56497.0,STARLINK-5527,PAYLOAD,2023-08-14 19:08:16,15.69933244,0.0003397,69.9976,335.1671,266.0522,94.0285,1.9706e-05,2.158e-05,0.0,0 STARLINK-5527,1 56497U 23064BB  23226.79741155  .00002158  00000-0  19706-4 0  9993,2 56497  69.9976 335.1671 0003397 266.0522  94.0285 15.69933244 15459,6737.225,91.724,361.379,356.801,0.0
56497.0,STARLINK-5527,PAYLOAD,2023-08-15 10:25:48,15.69945952,0.0003026,69.9963,333.3752,267.1638,92.9212,-2.7967e-05,-3.577e-05,0.0,0 STARLINK-5527,1 56497U 23064BB  23227.43458403 -.00003577  00000-0 -27967-4 0  9992,2 56497  69.9963 333.3752 0003026 267.1638  92.9212 15.69945952 15551,6737.189,91.723,361.092,357.015,0.0
56497.0,STARLINK-5527,PAYLOAD,2023-08-16 00:11:34,15.69929915,0.0003148,69.9969,331.764,268.4773,91.6062,-9.6279e-06,-1.37e-05,0.0,0 STARLINK-5527,1 56497U 23064BB  23228.00803624 -.00001370  00000-0 -96279-5 0  9997,2 56497  69.9969 331.7640 0003148 268.4773  91.6062 15.69929915 15644,6737.235,91.724,361.22,356.979,0.0
56497.0,STARLINK-5527,PAYLOAD,2023-08-16 10:53:49,15.69931809,0.0003667,69.9983,330.509,265.818,94.2597,1.7428e-05,1.884e-05,0.0,0 STARLINK-5527,1 56497U 23064BB  23228.45404648  .00001884  00000-0  17428-4 0  9995,2 56497  69.9983 330.5090 0003667 265.8180  94.2597 15.69931809 15710,6737.229,91.724,361.565,356.624,0.0
56497.0,STARLINK-5527,PAYLOAD,2023-08-17 09:50:06,15.6992608,0.0003359,69.9979,327.8223,269.9855,90.0956,1.3859e-05,1.454e-05,0.0,0 STARLINK-5527,1 56497U 23064BB  23229.40980267  .00001454  00000-0  13859-4 0  9994,2 56497  69.9979 327.8223 0003359 269.9855  90.0956 15.69926080 15868,6737.245,91.724,361.374,356.847,0.0
56497.0,STARLINK-5527,PAYLOAD,2023-08-18 16:25:08,15.699424,0.0003087,69.998,324.2371,262.0548,98.0298,6.9516e-06,6.24e-06,0.0,0 STARLINK-5527,1 56497U 23064BB  23230.68412618  .00000624  00000-0  69516-5 0  9996,2 56497  69.9980 324.2371 0003087 262.0548  98.0298 15.69942400 16060,6737.199,91.723,361.144,356.984,0.0
56497.0,STARLINK-5527,PAYLOAD,2023-08-19 00:03:55,15.69918587,0.0003634,69.9982,323.3416,267.1315,92.9465,-2.0614e-07,-2.38e-06,0.0,0 STARLINK-5527,1 56497U 23064BB  23231.00272552 -.00000238  00000-0 -20614-6 0  9994,2 56497  69.9982 323.3416 0003634 267.1315  92.9465 15.69918587 16112,6737.267,91.725,361.58,356.684,0.0
56497.0,STARLINK-5527,PAYLOAD,2023-08-20 09:42:27,15.69927411,0.0003118,69.9972,319.4002,268.9344,91.1494,6.7437e-06,5.98e-06,0.0,0 STARLINK-5527,1 56497U 23064BB  23232.40449045  .00000598  00000-0  67437-5 0  9992,2 56497  69.9972 319.4002 0003118 268.9344  91.1494 15.69927411 16339,6737.242,91.724,361.207,357.006,0.0
56497.0,STARLINK-5527,PAYLOAD,2023-08-20 23:28:14,15.69919415,0.0003046,69.9986,317.7889,267.667,92.4177,1.6135e-05,1.727e-05,0.0,0 STARLINK-5527,1 56497U 23064BB  23232.97794417  .00001727  00000-0  16135-4 0  9993,2 56497  69.9986 317.7889 0003046 267.6670  92.4177 15.69919415 16423,6737.265,91.724,361.182,357.077,0.0
56497.0,STARLINK-5527,PAYLOAD,2023-08-22 09:06:47,15.69923092,0.0003256,69.9977,313.8483,266.6764,93.4059,1.4639e-05,1.548e-05,0.0,0 STARLINK-5527,1 56497U 23064BB  23234.37971172  .00001548  00000-0  14639-4 0  9992,2 56497  69.9977 313.8483 0003256 266.6764  93.4059 15.69923092 16646,6737.254,91.724,361.313,356.925,0.0
56497.0,STARLINK-5527,PAYLOAD,2023-08-23 12:38:19,15.69922393,0.0002744,70.0002,310.6277,251.6491,108.4407,2.048e-05,2.25e-05,0.0,0 STARLINK-5527,1 56497U 23064BB  23235.52661336  .00002250  00000-0  20480-4 0  9990,2 56497  70.0002 310.6277 0002744 251.6491 108.4407 15.69922393 16823,6737.256,91.724,360.97,357.272,0.0
56497.0,STARLINK-5527,PAYLOAD,2023-08-24 16:09:51,15.69924301,0.0002949,70.0002,307.4025,250.9868,109.1008,1.7844e-05,1.933e-05,0.0,0 STARLINK-5527,1 56497U 23064BB  23236.67351293  .00001933  00000-0  17844-4 0  9992,2 56497  70.0002 307.4025 0002949 250.9868 109.1008 15.69924301 17002,6737.251,91.724,361.102,357.129,0.0
56497.0,STARLINK-5527,PAYLOAD,2023-08-25 13:34:23,15.69928957,0.0003084,69.9989,304.8938,265.2296,94.8547,1.0692e-05,1.073e-05,0.0,0 STARLINK-5527,1 56497U 23064BB  23237.56554636  .00001073  00000-0  10692-4 0  9996,2 56497  69.9989 304.8938 0003084 265.2296  94.8547 15.69928957 16796,6737.237,91.724,361.18,357.024,0.0
